XRISM                   
1 57800U 23137A   23292.48585668  .00005815  00000+0  47060-3 0  9992
2 57800  31.0022 107.4999 0010405 337.0766  22.9404 14.98284719  6371
